sat01425
1 01425U 65048C   20046.79930171  .00000013  00000-0  41369-5 0  9996
2 01425  89.9312 308.1450 0075283  57.7740  11.5648 13.48773150688570
